{
  "type": "FeatureCollection",
  "features": [
    {
      "type": "Feature",
      "properties": {
        "norad_id": 33886,
        "name": "IRIDIUM 33 DEB",
        "group": "iridium-33-debris",
        "lat": 32.50175866520089,
        "lon": -113.76762175550596,
        "alt_km": 772.2025247777938,
        "timestamp": "2025-12-09T14:52:26.547422+00:00",
        "meta_object_name": "IRIDIUM 33 DEB",
        "meta_object_id": "1997-051BF",
        "meta_epoch": "2025-12-09T07:48:13.464576",
        "meta_mean_motion": 14.36046188,
        "meta_eccentricity": 0.00121286,
        "meta_inclination": 86.3831,
        "meta_ra_of_asc_node": 68.6659,
        "meta_arg_of_pericenter": 254.8852,
        "meta_mean_anomaly": 170.55,
        "meta_ephemeris_type": 0,
        "meta_classification_type": "U",
        "meta_norad_cat_id": 33886,
        "meta_element_set_no": 999,
        "meta_rev_at_epoch": 88003,
        "meta_bstar": 0.00037354639,
        "meta_mean_motion_dot": 1.106e-05,
        "meta_mean_motion_ddot": 0,
        "tle_line1": "1 33886U 97051BF  25343.32515584  .00001106  00000+0  37355-3 0  9993",
        "tle_line2": "2 33886  86.3831  68.6659 0012128 254.8852 170.5500 14.36046188880035"
      },
      "geometry": {
        "type": "Point",
        "coordinates": [
          -113.76762175550596,
          32.50175866520089
        ]
      }
    },
    {
      "type": "Feature",
      "properties": {
        "norad_id": 33887,
        "name": "IRIDIUM 33 DEB",
        "group": "iridium-33-debris",
        "lat": 70.21456005571508,
        "lon": 15.086442302675424,
        "alt_km": 763.954148034074,
        "timestamp": "2025-12-09T14:52:26.547433+00:00",
        "meta_object_name": "IRIDIUM 33 DEB",
        "meta_object_id": "1997-051BG",
        "meta_epoch": "2025-12-09T07:58:22.365984",
        "meta_mean_motion": 14.37216828,
        "meta_eccentricity": 0.00041941,
        "meta_inclination": 86.3047,
        "meta_ra_of_asc_node": 4.8609,
        "meta_arg_of_pericenter": 242.0671,
        "meta_mean_anomaly": 141.6982,
        "meta_ephemeris_type": 0,
        "meta_classification_type": "U",
        "meta_norad_cat_id": 33887,
        "meta_element_set_no": 999,
        "meta_rev_at_epoch": 88116,
        "meta_bstar": 0.00025793494,
        "meta_mean_motion_dot": 7.87e-06,
        "meta_mean_motion_ddot": 0,
        "tle_line1": "1 33887U 97051BG  25343.33220331  .00000787  00000+0  25793-3 0  9995",
        "tle_line2": "2 33887  86.3047   4.8609 0004194 242.0671 141.6982 14.37216828881163"
      },
      "geometry": {
        "type": "Point",
        "coordinates": [
          15.086442302675424,
          70.21456005571508
        ]
      }
    },
    {
      "type": "Feature",
      "properties": {
        "norad_id": 33953,
        "name": "IRIDIUM 33 DEB",
        "group": "iridium-33-debris",
        "lat": 82.30565232184996,
        "lon": 83.04158377538702,
        "alt_km": 689.6395718246085,
        "timestamp": "2025-12-09T14:52:26.547443+00:00",
        "meta_object_name": "IRIDIUM 33 DEB",
        "meta_object_id": "1997-051BN",
        "meta_epoch": "2025-12-09T04:52:48.423936",
        "meta_mean_motion": 14.55266937,
        "meta_eccentricity": 0.00184703,
        "meta_inclination": 86.384,
        "meta_ra_of_asc_node": 55.3141,
        "meta_arg_of_pericenter": 113.5745,
        "meta_mean_anomaly": 309.5735,
        "meta_ephemeris_type": 0,
        "meta_classification_type": "U",
        "meta_norad_cat_id": 33953,
        "meta_element_set_no": 999,
        "meta_rev_at_epoch": 88252,
        "meta_bstar": 0.0014360939,
        "meta_mean_motion_dot": 6.253e-05,
        "meta_mean_motion_ddot": 0,
        "tle_line1": "1 33953U 97051BN  25343.20333824  .00006253  00000+0  14361-2 0  9999",
        "tle_line2": "2 33953  86.3840  55.3141 0018470 113.5745 309.5735 14.55266937882524"
      },
      "geometry": {
        "type": "Point",
        "coordinates": [
          83.04158377538702,
          82.30565232184996
        ]
      }
    },
    {
      "type": "Feature",
      "properties": {
        "norad_id": 33960,
        "name": "IRIDIUM 33 DEB",
        "group": "iridium-33-debris",
        "lat": -84.69503482877197,
        "lon": -113.89848647219578,
        "alt_km": 625.8615968149215,
        "timestamp": "2025-12-09T14:52:26.547454+00:00",
        "meta_object_name": "IRIDIUM 33 DEB",
        "meta_object_id": "1997-051BV",
        "meta_epoch": "2025-12-09T07:42:37.373760",
        "meta_mean_motion": 14.8489733,
        "meta_eccentricity": 0.00073452,
        "meta_inclination": 86.2536,
        "meta_ra_of_asc_node": 291.1258,
        "meta_arg_of_pericenter": 67.4678,
        "meta_mean_anomaly": 51.7843,
        "meta_ephemeris_type": 0,
        "meta_classification_type": "U",
        "meta_norad_cat_id": 33960,
        "meta_element_set_no": 999,
        "meta_rev_at_epoch": 88816,
        "meta_bstar": 0.0041556572,
        "meta_mean_motion_dot": 0.00035526,
        "meta_mean_motion_ddot": 0,
        "tle_line1": "1 33960U 97051BV  25343.32126590  .00035526  00000+0  41557-2 0  9992",
        "tle_line2": "2 33960  86.2536 291.1258 0007345  67.4678  51.7843 14.84897330888164"
      },
      "geometry": {
        "type": "Point",
        "coordinates": [
          -113.89848647219578,
          -84.69503482877197
        ]
      }
    },
    {
      "type": "Feature",
      "properties": {
        "norad_id": 33966,
        "name": "IRIDIUM 33 DEB",
        "group": "iridium-33-debris",
        "lat": -84.95009087038294,
        "lon": 1.8091764672149189,
        "alt_km": 733.1693208303204,
        "timestamp": "2025-12-09T14:52:26.547465+00:00",
        "meta_object_name": "IRIDIUM 33 DEB",
        "meta_object_id": "1997-051CB",
        "meta_epoch": "2025-12-09T05:36:29.443968",
        "meta_mean_motion": 14.49572478,
        "meta_eccentricity": 0.00069989,
        "meta_inclination": 86.3924,
        "meta_ra_of_asc_node": 47.5319,
        "meta_arg_of_pericenter": 200.2452,
        "meta_mean_anomaly": 219.7781,
        "meta_ephemeris_type": 0,
        "meta_classification_type": "U",
        "meta_norad_cat_id": 33966,
        "meta_element_set_no": 999,
        "meta_rev_at_epoch": 88391,
        "meta_bstar": 0.00091317712,
        "meta_mean_motion_dot": 3.524e-05,
        "meta_mean_motion_ddot": 0,
        "tle_line1": "1 33966U 97051CB  25343.23367412  .00003524  00000+0  91318-3 0  9992",
        "tle_line2": "2 33966  86.3924  47.5319 0006998 200.2452 219.7781 14.49572478883912"
      },
      "geometry": {
        "type": "Point",
        "coordinates": [
          1.8091764672149189,
          -84.95009087038294
        ]
      }
    },
    {
      "type": "Feature",
      "properties": {
        "norad_id": 34071,
        "name": "IRIDIUM 33 DEB",
        "group": "iridium-33-debris",
        "lat": -18.85503890846632,
        "lon": 17.93383683032953,
        "alt_km": 737.5100524072686,
        "timestamp": "2025-12-09T14:52:26.547476+00:00",
        "meta_object_name": "IRIDIUM 33 DEB",
        "meta_object_id": "1997-051CE",
        "meta_epoch": "2025-12-09T03:21:46.784448",
        "meta_mean_motion": 14.49438842,
        "meta_eccentricity": 0.00098048,
        "meta_inclination": 86.3456,
        "meta_ra_of_asc_node": 19.3928,
        "meta_arg_of_pericenter": 117.2084,
        "meta_mean_anomaly": 243.0121,
        "meta_ephemeris_type": 0,
        "meta_classification_type": "U",
        "meta_norad_cat_id": 34071,
        "meta_element_set_no": 999,
        "meta_rev_at_epoch": 88282,
        "meta_bstar": 0.00075639379,
        "meta_mean_motion_dot": 2.915e-05,
        "meta_mean_motion_ddot": 0,
        "tle_line1": "1 34071U 97051CE  25343.14012482  .00002915  00000+0  75639-3 0  9995",
        "tle_line2": "2 34071  86.3456  19.3928 0009804 117.2084 243.0121 14.49438842882823"
      },
      "geometry": {
        "type": "Point",
        "coordinates": [
          17.93383683032953,
          -18.85503890846632
        ]
      }
    },
    {
      "type": "Feature",
      "properties": {
        "norad_id": 34077,
        "name": "IRIDIUM 33 DEB",
        "group": "iridium-33-debris",
        "lat": 11.33232962753615,
        "lon": 53.60735725561363,
        "alt_km": 673.4405361729596,
        "timestamp": "2025-12-09T14:52:26.547487+00:00",
        "meta_object_name": "IRIDIUM 33 DEB",
        "meta_object_id": "1997-051CL",
        "meta_epoch": "2025-12-09T06:56:34.628352",
        "meta_mean_motion": 14.64759036,
        "meta_eccentricity": 0.00105488,
        "meta_inclination": 86.3858,
        "meta_ra_of_asc_node": 53.0271,
        "meta_arg_of_pericenter": 50.3896,
        "meta_mean_anomaly": 19.714,
        "meta_ephemeris_type": 0,
        "meta_classification_type": "U",
        "meta_norad_cat_id": 34077,
        "meta_element_set_no": 999,
        "meta_rev_at_epoch": 88282,
        "meta_bstar": 0.0022106666,
        "meta_mean_motion_dot": 0.00011819,
        "meta_mean_motion_ddot": 0,
        "tle_line1": "1 34077U 97051CL  25343.28928968  .00011819  00000+0  22107-2 0  9995",
        "tle_line2": "2 34077  86.3858  53.0271 0010548  50.3896  19.7140 14.64759036882823"
      },
      "geometry": {
        "type": "Point",
        "coordinates": [
          53.60735725561363,
          11.33232962753615
        ]
      }
    }
  ]
}